ISS (ZARYA)             
1 25544U 98067A   26033.53325067  .00009405  00000+0  18249-3 0  9999
2 25544  51.6312 246.1482 0011108  57.0277 303.1777 15.48343227550889
CSS (TIANHE)            
1 48274U 21035A   26033.50218254  .00014324  00000+0  18189-3 0  9990
2 48274  41.4673  62.0121 0006388 343.4134  16.6494 15.59105413272118
ISS (NAUKA)             
1 49044U 21066A   26033.53325067  .00009405  00000+0  18249-3 0  9995
2 49044  51.6312 246.1482 0011108  57.0277 303.1777 15.48343227230447
FREGAT DEB              
1 49271U 11037PF  26031.32753165  .00037773  00000+0  66212-1 0  9993
2 49271  51.6511  52.4676 0919449 333.8142  21.8846 12.37389576208060
CSS (WENTIAN)           
1 53239U 22085A   26033.50218254  .00014324  00000+0  18189-3 0  9993
2 53239  41.4673  62.0121 0006388 343.4134  16.6494 15.59105413173845
CSS (MENGTIAN)          
1 54216U 22143A   26033.50218254  .00014324  00000+0  18189-3 0  9994
2 54216  41.4673  62.0121 0006388 343.4134  16.6494 15.59105413158642
PROGRESS-MS 31          
1 64751U 25146A   26033.53325067  .00009405  00000+0  18249-3 0  9990
2 64751  51.6312 246.1482 0011108  57.0277 303.1777 15.48343227  6754
TIANZHOU-9              
1 64786U 25149A   26033.50218254  .00014324  00000+0  18189-3 0  9996
2 64786  41.4673  62.0121 0006388 343.4134  16.6494 15.59105413255306
DRAGON CRS-33           
1 65304U 25186A   26033.53325067  .00009405  00000+0  18249-3 0  9999
2 65304  51.6312 246.1482 0011108  57.0277 303.1777 15.48343227   113
PROGRESS-MS 32          
1 65586U 25204A   26033.53325067  .00009405  00000+0  18249-3 0  9992
2 65586  51.6312 246.1482 0011108  57.0277 303.1777 15.48343227   272
CYGNUS NG-23            
1 65616U 25208A   26033.53325067  .00009405  00000+0  18249-3 0  9990
2 65616  51.6312 246.1482 0011108  57.0277 303.1777 15.48343227   221
1998-067XK              
1 65731U 98067XK  26033.53472103  .00234686  00000+0  11372-2 0  9995
2 65731  51.6225 231.8703 0003664 208.4882 151.5920 15.81269566 21296
